NOAA 1 [-]              
1 04793U 70106A   23228.14276339 -.00000017  00000+0  16355-3 0  9990
2 04793 101.4986 285.1877 0031426 213.9199 202.4827 12.54017801411305
NOAA 2 (ITOS-D) [-]     
1 06235U 72082A   23229.47118267 -.00000025  00000+0  13597-3 0  9994
2 06235 101.9953 220.1613 0004038 348.2710 180.4373 12.53166182325563
NOAA 3 [-]              
1 06920U 73086A   23227.94564392 -.00000024  00000+0  16750-3 0  9997
2 06920 102.2512 216.5582 0006108 227.6120 146.2692 12.40356912253605
NOAA 4 [-]              
1 07529U 74089A   23228.73057911 -.00000041  00000+0  32952-4 0  9991
2 07529 101.9601 215.4962 0009204  13.8395 158.7921 12.53170850230062
NOAA 5 [-]              
1 09057U 76077A   23228.45839677 -.00000046  00000+0 -29197-5 0  9998
2 09057 102.1579 197.9915 0010220  75.8137  38.9712 12.37787248126553
TIROS N [-]             
1 11060U 78096A   23228.19488298  .00000220  00000+0  12669-3 0  9994
2 11060  98.5790 274.3386 0010508   6.1921 353.9383 14.18612464532061
NOAA 6 [-]              
1 11416U 79057A   23228.49682859  .00000416  00000+0  16447-3 0  9994
2 11416  98.6508 244.8218 0011509  85.0620 275.1878 14.34126203302646
NOAA 7 [-]              
1 12553U 81059A   23229.11400993  .00000090  00000+0  66600-4 0  9994
2 12553  98.9419 282.4305 0011178 349.7086  10.3858 14.17430055178312
NOAA 8 [-]              
1 13923U 83022A   23228.75016701  .00000214  00000+0  10191-3 0  9998
2 13923  98.7158 223.4424 0015947  49.1126 311.1434 14.29023203103409
NOAA 9 [-]              
1 15427U 84123A   23229.46941906  .00000194  00000+0  12087-3 0  9998
2 15427  99.0941 214.8310 0015581  41.8209 122.2369 14.16397391997145
NOAA 10 [-]             
1 16969U 86073A   23228.48852333  .00000179  00000+0  88842-4 0  9998
2 16969  98.6084 212.8780 0012832 142.5827  19.5905 14.28401465921760
NOAA 11 [-]             
1 19531U 88089A   23228.42261026  .00000075  00000+0  59501-4 0  9997
2 19531  98.4708 200.2692 0011927  39.3746 320.8293 14.15418529801185
NOAA 12 [-]             
1 21263U 91032A   23228.75164044  .00000131  00000+0  72661-4 0  9997
2 21263  98.5354 222.1802 0013834 170.0676 190.0780 14.26148324677609
NOAA 13 [-]             
1 22739U 93050A   23228.83341994  .00000183  00000+0  12012-3 0  9998
2 22739  98.5579 193.7521 0008920 199.7704 160.3124 14.13027423547361
NOAA 14 [-]             
1 23455U 94089A   23228.47565768  .00000074  00000+0  60006-4 0  9990
2 23455  98.4267 236.6091 0009534 174.8916 185.2357 14.14292151477022
NOAA 15 [B]             
1 25338U 98030A   23229.46683975  .00000261  00000+0  12657-3 0  9999
2 25338  98.6032 257.4679 0011307 131.1062 229.1096 14.26373039313999
NOAA 16 [-]             
1 26536U 00055A   23228.71516045  .00000099  00000+0  74746-4 0  9997
2 26536  98.5790 276.5756 0011083  36.1204 324.0716 14.13455186180920
NOAA 17 [-]             
1 27453U 02032A   23228.80246727  .00000222  00000+0  11307-3 0  9991
2 27453  98.7186 175.3396 0012834 113.0273 247.2261 14.25343930 99456
NOAA 18 [B]             
1 28654U 05018A   23229.38966713  .00000234  00000+0  14943-3 0  9992
2 28654  98.9070 303.4773 0013968 202.7570 157.2985 14.12988501940219
NOAA 19 [+]             
1 33591U 09005A   23229.44191684  .00000228  00000+0  14757-3 0  9998
2 33591  99.0954 276.3346 0014813  72.5932 287.6858 14.12805145748593
SUOMI NPP [+]           
1 37849U 11061A   23229.43031708  .00000115  00000+0  75104-4 0  9991
2 37849  98.7052 167.1113 0001626  85.6319  22.3511 14.19556652611625
NOAA 20 [+]             
1 43013U 17073A   23229.44423300  .00000110  00000+0  72820-4 0  9991
2 43013  98.7132 166.9450 0000839  65.9857 294.1407 14.19554751297663
NOAA 21 (JPSS-2) [+]    
1 54234U 22150A   23229.10724264  .00000108  00000+0  71809-4 0  9999
2 54234  98.7171 166.1100 0000724  97.5367 262.5891 14.19536519 39692
